GLOBALSTAR M023 [+]     
1 25621U 99004A   23357.13258597 -.00000204  00000+0 -55963-3 0  9996
2 25621  52.0112 263.9245 0010505  11.3523 135.2624 12.62443004147265
GLOBALSTAR M040 [-]     
1 25622U 99004B   23356.96364228 -.00000088  00000+0  87048-4 0  9995
2 25622  51.9926 267.8007 0000568   5.7123  76.4001 12.61962730146790
GLOBALSTAR M036 [-]     
1 25623U 99004C   23357.16471648 -.00000110  00000+0 -39598-3 0  9997
2 25623  51.9950 228.9182 0012426  92.9968  84.4963 11.86557712114631
GLOBALSTAR M038 [-]     
1 25624U 99004D   23357.51928670 -.00000041  00000+0  44444-3 0  9997
2 25624  51.9944 191.4601 0002319  38.4027 338.2216 12.32490138135584
GLOBALSTAR M022 [-]     
1 25649U 99012A   23357.38607979 -.00000068  00000+0  22757-3 0  9996
2 25649  52.0065 323.7314 0002347 170.3665 357.2340 12.02474694111199
GLOBALSTAR M046 [-]     
1 25651U 99012C   23357.28095854 -.00000150  00000+0 -67931-3 0  9997
2 25651  52.0068 293.9309 0001545 260.4878 265.4978 12.09381721118091
GLOBALSTAR M037 [+]     
1 25652U 99012D   23357.31111559 -.00000055  00000+0  27080-3 0  9997
2 25652  52.0022  34.2067 0002056  76.9874   3.8483 12.62391797142830
